NORAD_CAT_ID,OBJECT_NAME,OBJECT_TYPE,EPOCH,MEAN_MOTION,ECCENTRICITY,INCLINATION,RA_OF_ASC_NODE,ARG_OF_PERICENTER,MEAN_ANOMALY,BSTAR,MEAN_MOTION_DOT,MEAN_MOTION_DDOT,TLE_LINE0,TLE_LINE1,TLE_LINE2,SEMIMAJOR_AXIS,PERIOD,APOGEE,PERIGEE,DECAYED
52498.0,STARLINK-3925,PAYLOAD,2022-12-14 14:22:33,15.08848662,0.0002424,53.2167,301.2352,33.0431,327.0713,0.00031113,4.668e-05,0.0,0 STARLINK-3925,1 52498U 22049AZ  22348.59900017  .00004668  00000-0  31113-3 0  9991,2 52498  53.2167 301.2352 0002424  33.0431 327.0713 15.08848662 34228,6917.854,95.437,541.396,538.0419999999998,0.0
52498.0,STARLINK-3925,PAYLOAD,2022-12-15 06:16:24,15.08848588,0.0002346,53.217,298.2611,32.8992,327.2145,9.3885e-05,1.207e-05,0.0,0 STARLINK-3925,1 52498U 22049AZ  22349.26139680  .00001207  00000-0  93885-4 0  9997,2 52498  53.2170 298.2611 0002346  32.8992 327.2145 15.08848588 34483,6917.854,95.437,541.342,538.096,0.0
52498.0,STARLINK-3925,PAYLOAD,2022-12-15 07:51:47,15.08847271,0.0002294,53.2174,297.9635,32.2224,327.8908,9.829e-05,1.277e-05,0.0,0 STARLINK-3925,1 52498U 22049AZ  22349.32763775  .00001277  00000-0  98290-4 0  9994,2 52498  53.2174 297.9635 0002294  32.2224 327.8908 15.08847271 34338,6917.858,95.437,541.31,538.136,0.0
52498.0,STARLINK-3925,PAYLOAD,2022-12-15 20:34:53,15.08841998,0.0002309,53.2174,295.5845,31.9908,328.1224,1.205e-05,-9.7e-07,0.0,0 STARLINK-3925,1 52498U 22049AZ  22349.85755944 -.00000097  00000-0  12050-4 0  9991,2 52498  53.2174 295.5845 0002309  31.9908 328.1224 15.08841998 34411,6917.874,95.437,541.337,538.1419999999998,0.0
52498.0,STARLINK-3925,PAYLOAD,2022-12-15 23:45:39,15.08843108,0.000245,53.2175,294.9899,35.7337,324.3819,-3.2984e-05,-8.13e-06,0.0,0 STARLINK-3925,1 52498U 22049AZ  22349.99003986 -.00000813  00000-0 -32984-4 0  9993,2 52498  53.2175 294.9899 0002450  35.7337 324.3819 15.08843108 34591,6917.871,95.437,541.431,538.0409999999998,0.0
52498.0,STARLINK-3925,PAYLOAD,2022-12-16 07:42:35,15.08833455,0.0002405,53.2173,293.5038,33.2631,326.8512,-4.8179e-05,-1.055e-05,0.0,0 STARLINK-3925,1 52498U 22049AZ  22350.32124643 -.00001055  00000-0 -48179-4 0  9998,2 52498  53.2173 293.5038 0002405  33.2631 326.8512 15.08833455 34646,6917.9,95.438,541.429,538.102,0.0
52498.0,STARLINK-3925,PAYLOAD,2022-12-16 20:25:39,15.08846452,0.0002428,53.2176,291.1248,33.5085,326.6061,2.4597e-05,1.03e-06,0.0,0 STARLINK-3925,1 52498U 22049AZ  22350.85115471  .00000103  00000-0  24597-4 0  9994,2 52498  53.2176 291.1248 0002428  33.5085 326.6061 15.08846452 34724,6917.861,95.437,541.405,538.0459999999998,0.0
52498.0,STARLINK-3925,PAYLOAD,2022-12-17 05:57:58,15.08841536,0.0002323,53.2173,289.3405,32.9645,327.1491,4.2351e-05,3.86e-06,0.0,0 STARLINK-3925,1 52498U 22049AZ  22351.24859597  .00000386  00000-0  42351-4 0  9993,2 52498  53.2173 289.3405 0002323  32.9645 327.1491 15.08841536 34624,6917.876,95.437,541.3480000000002,538.134,0.0
52498.0,STARLINK-3925,PAYLOAD,2022-12-17 20:16:27,15.08834038,0.000233,53.2172,286.6639,34.2895,325.8247,6.6699e-06,-1.82e-06,0.0,0 STARLINK-3925,1 52498U 22049AZ  22351.84476259 -.00000182  00000-0  66699-5 0  9996,2 52498  53.2172 286.6639 0002330  34.2895 325.8247 15.08834038 34715,6917.899,95.438,541.375,538.1519999999998,0.0
52498.0,STARLINK-3925,PAYLOAD,2022-12-18 02:37:59,15.08837733,0.0002365,53.2174,285.4749,35.6413,324.4736,7.349e-05,8.81e-06,0.0,0 STARLINK-3925,1 52498U 22049AZ  22352.10971895  .00000881  00000-0  73490-4 0  9993,2 52498  53.2174 285.4749 0002365  35.6413 324.4736 15.08837733 34910,6917.887,95.438,541.388,538.116,0.0
52498.0,STARLINK-3925,PAYLOAD,2022-12-18 12:10:18,15.08846301,0.0002395,53.2174,283.6906,35.972,324.1433,8.2675e-05,1.028e-05,0.0,0 STARLINK-3925,1 52498U 22049AZ  22352.50715293  .00001028  00000-0  82675-4 0  9994,2 52498  53.2174 283.6906 0002395  35.9720 324.1433 15.08846301 34813,6917.861,95.437,541.383,538.069,0.0
52498.0,STARLINK-3925,PAYLOAD,2022-12-18 20:07:13,15.08842206,0.0002351,53.2179,282.2044,36.8959,323.2195,6.231699999999999e-05,7.04e-06,0.0,0 STARLINK-3925,1 52498U 22049AZ  22352.83835614  .00000704  00000-0  62317-4 0  9991,2 52498  53.2179 282.2044 0002351  36.8959 323.2195 15.08842206 34862,6917.874,95.437,541.365,538.112,0.0
52498.0,STARLINK-3925,PAYLOAD,2022-12-19 05:39:33,15.08840266,0.0002277,53.2176,280.4203,35.2528,324.8615,-2.993e-05,-7.65e-06,0.0,0 STARLINK-3925,1 52498U 22049AZ  22353.23580047 -.00000765  00000-0 -29930-4 0  9996,2 52498  53.2176 280.4203 0002277  35.2528 324.8615 15.08840266 35081,6917.88,95.438,541.32,538.169,0.0
52498.0,STARLINK-3925,PAYLOAD,2022-12-20 03:54:56,15.08850786,0.0002249,53.2176,276.2569,39.5264,320.5892,0.00013621,1.881e-05,0.0,0 STARLINK-3925,1 52498U 22049AZ  22354.16314908  .00001881  00000-0  13621-3 0  9997,2 52498  53.2176 276.2569 0002249  39.5264 320.5892 15.08850786 35226,6917.847,95.437,541.268,538.1569999999998,0.0
52498.0,STARLINK-3925,PAYLOAD,2022-12-20 11:51:51,15.08855059,0.0002293,53.2176,274.7701,39.5513,320.5646,0.00014595,2.036e-05,0.0,0 STARLINK-3925,1 52498U 22049AZ  22354.49434416  .00002036  00000-0  14595-3 0  9994,2 52498  53.2176 274.7701 0002293  39.5513 320.5646 15.08855059 35116,6917.834,95.437,541.286,538.113,0.0
52498.0,STARLINK-3925,PAYLOAD,2022-12-20 21:24:11,15.08834879,0.0002357,53.217,272.9849,29.8546,330.2580000000001,2.4421e-05,1e-06,0.0,0 STARLINK-3925,1 52498U 22049AZ  22354.89179740  .00000100  00000-0  24421-4 0  9994,2 52498  53.2170 272.9849 0002357  29.8546 330.2580 15.08834879 35338,6917.896,95.438,541.3919999999998,538.13,0.0
52498.0,STARLINK-3925,PAYLOAD,2022-12-21 03:45:44,15.08825605,0.0002306,53.2165,271.7951,29.9905,330.1219,-0.000111,-2.054e-05,0.0,0 STARLINK-3925,1 52498U 22049AZ  22355.15676756 -.00002054  00000-0 -11100-3 0  9994,2 52498  53.2165 271.7951 0002306  29.9905 330.1219 15.08825605 35376,6917.924,95.438,541.385,538.194,0.0
52498.0,STARLINK-3925,PAYLOAD,2022-12-22 03:36:31,15.08842204,0.0002326,53.2169,267.3343,36.7351,323.38,-2.1404e-05,-6.29e-06,0.0,0 STARLINK-3925,1 52498U 22049AZ  22356.15036154 -.00000629  00000-0 -21404-4 0  9992,2 52498  53.2169 267.3343 0002326  36.7351 323.3800 15.08842204 35520,6917.874,95.437,541.3480000000002,538.13,0.0
52498.0,STARLINK-3925,PAYLOAD,2022-12-22 11:33:27,15.08831307,0.0002221,53.2163,265.8486,37.614,322.5007,-0.00012404,-2.261e-05,0.0,0 STARLINK-3925,1 52498U 22049AZ  22356.48157235 -.00002261  00000-0 -12404-3 0  9995,2 52498  53.2163 265.8486 0002221  37.6140 322.5007 15.08831307 35415,6917.906999999997,95.438,541.308,538.235,0.0
52498.0,STARLINK-3925,PAYLOAD,2022-12-22 13:08:51,15.08830884,0.0002309,53.2162,265.5512,39.256,320.8599,-0.00012493,-2.276e-05,0.0,0 STARLINK-3925,1 52498U 22049AZ  22356.54781346 -.00002276  00000-0 -12493-3 0  9992,2 52498  53.2162 265.5512 0002309  39.2560 320.8599 15.08830884 35586,6917.908,95.438,541.371,538.1759999999998,0.0
52498.0,STARLINK-3925,PAYLOAD,2022-12-23 11:24:15,15.08825117,0.0002226,53.2166,261.3877,38.0942,322.0207,0.00020338,2.949e-05,0.0,0 STARLINK-3925,1 52498U 22049AZ  22357.47517745  .00002949  00000-0  20338-3 0  9997,2 52498  53.2166 261.3877 0002226  38.0942 322.0207 15.08825117 35568,6917.926,95.438,541.331,538.251,0.0
52498.0,STARLINK-3925,PAYLOAD,2022-12-24 00:07:19,15.08847148,0.0002275,53.2164,259.009,40.7977,319.3185,0.00018094,2.593e-05,0.0,0 STARLINK-3925,1 52498U 22049AZ  22358.00508818  .00002593  00000-0  18094-3 0  9999,2 52498  53.2164 259.0090 0002275  40.7977 319.3185 15.08847148 35808,6917.859,95.437,541.297,538.15,0.0
52498.0,STARLINK-3925,PAYLOAD,2022-12-24 03:18:05,15.08850584,0.0002294,53.2164,258.4141,41.9335,318.1832,0.00021239,3.095e-05,0.0,0 STARLINK-3925,1 52498U 22049AZ  22358.13756567  .00003095  00000-0  21239-3 0  9992,2 52498  53.2164 258.4141 0002294  41.9335 318.1832 15.08850584 35668,6917.848000000001,95.437,541.3,538.126,0.0
52498.0,STARLINK-3925,PAYLOAD,2022-12-24 20:47:21,15.08833609,0.0002223,53.2162,255.1426,45.2383,314.879,0.00021936,3.204e-05,0.0,0 STARLINK-3925,1 52498U 22049AZ  22358.86621626  .00003204  00000-0  21936-3 0  9995,2 52498  53.2162 255.1426 0002223  45.2383 314.8790 15.08833609 35933,6917.9,95.438,541.303,538.227,0.0
52498.0,STARLINK-3925,PAYLOAD,2022-12-25 01:33:30,15.08839545,0.0002161,53.2167,254.2507,42.3126,317.8033,0.00014116,1.959e-05,0.0,0 STARLINK-3925,1 52498U 22049AZ  22359.06493464  .00001959  00000-0  14116-3 0  9992,2 52498  53.2167 254.2507 0002161  42.3126 317.8033 15.08839545 35806,6917.882,95.438,541.242,538.252,0.0
52498.0,STARLINK-3925,PAYLOAD,2022-12-25 17:27:21,15.08843833,0.0002147,53.2167,251.2768,46.1186,313.9983,-5.9276e-06,-3.83e-06,0.0,0 STARLINK-3925,1 52498U 22049AZ  22359.72733517 -.00000383  00000-0 -59276-5 0  9991,2 52498  53.2167 251.2768 0002147  46.1186 313.9983 15.08843833 35901,6917.869000000002,95.437,541.219,538.248,0.0
52498.0,STARLINK-3925,PAYLOAD,2022-12-26 02:59:40,15.08849949,0.000229,53.2164,249.49400000000003,43.9775,316.1399,5.3671e-07,-2.8e-06,0.0,0 STARLINK-3925,1 52498U 22049AZ  22360.12476908 -.00000280  00000-0  53671-6 0  9994,2 52498  53.2164 249.4940 0002290  43.9775 316.1399 15.08849949 36122,6917.85,95.437,541.299,538.131,0.0
52498.0,STARLINK-3925,PAYLOAD,2022-12-26 09:21:12,15.08845256,0.0002354,53.2176,248.3028,43.3395,316.7782,-6.542600000000001e-05,-1.33e-05,0.0,0 STARLINK-3925,1 52498U 22049AZ  22360.38973341 -.00001330  00000-0 -65426-4 0  9992,2 52498  53.2176 248.3028 0002354  43.3395 316.7782 15.08845256 36009,6917.864000000001,95.437,541.3580000000002,538.101,0.0
52498.0,STARLINK-3925,PAYLOAD,2022-12-26 17:18:08,15.08840134,0.000207,53.2166,246.8164,40.6939,319.4207,5.8374e-05,6.41e-06,0.0,0 STARLINK-3925,1 52498U 22049AZ  22360.72093246  .00000641  00000-0  58374-4 0  9993,2 52498  53.2166 246.8164 0002070  40.6939 319.4207 15.08840134 36216,6917.88,95.438,541.177,538.313,0.0
